{"type": "FeatureCollection", "features": [ {"type": "Feature", "properties": {"norad_id": 66450, "name": "STARLINK-35334", "group": "last-30-days", "lat": -42.867216599944285, "lon": -21.054723001977678, "alt_km": 416.2316997561493, "timestamp": "2025-12-09T21:34:10.194687+00:00", "meta": {"OBJECT_NAME": "STARLINK-35334", "OBJECT_ID": "2025-259AE", "EPOCH": "2025-12-09T14:12:39.532608", "MEAN_MOTION": 15.50689398, "ECCENTRICITY": 0.00024895, "INCLINATION": 43.0018, "RA_OF_ASC_NODE": 65.6216, "ARG_OF_PERICENTER": 270.8736, "MEAN_ANOMALY": 89.1839, "EPHEMERIS_TYPE": 0, "CLASSIFICATION_TYPE": "U", "NORAD_CAT_ID": 66450, "ELEMENT_SET_NO": 999, "REV_AT_EPOCH": 568, "BSTAR": 0.0014656014, "MEAN_MOTION_DOT": 0.00086945, "MEAN_MOTION_DDOT": 0}, "tle": {"line1": "1 66450U 25259AE  25343.59212422  .00086945  00000+0  14656-2 0  9993", "line2": "2 66450  43.0018  65.6216 0002489 270.8736  89.1839 15.50689398  5682"}}, "geometry": {"type": "Point", "coordinates": [-21.054723001977678, -42.867216599944285]}}, {"type": "Feature", "properties": {"norad_id": 66454, "name": "VIASAT-3 F2", "group": "last-30-days", "lat": 5.324655037702165, "lon": 7.234537102932375, "alt_km": 19232.02369016228, "timestamp": "2025-12-09T21:34:10.194703+00:00", "meta": {"OBJECT_NAME": "VIASAT-3 F2", "OBJECT_ID": "2025-261A", "EPOCH": "2025-12-06T17:04:58.090944", "MEAN_MOTION": 2.24196708, "ECCENTRICITY": 0.23030921, "INCLINATION": 5.516, "RA_OF_ASC_NODE": 292.8248, "ARG_OF_PERICENTER": 186.81, "MEAN_ANOMALY": 221.0538, "EPHEMERIS_TYPE": 0, "CLASSIFICATION_TYPE": "U", "NORAD_CAT_ID": 66454, "ELEMENT_SET_NO": 999, "REV_AT_EPOCH": 51, "BSTAR": 0, "MEAN_MOTION_DOT": -7.3e-07, "MEAN_MOTION_DDOT": 0}, "tle": {"line1": "1 66454U 25261A   25340.71178346 -.00000073  00000+0  00000+0 0  9991", "line2": "2 66454   5.5160 292.8248 2303092 186.8100 221.0538  2.24196708   518"}}, "geometry": {"type": "Point", "coordinates": [7.234537102932375, 5.324655037702165]}}, {"type": "Feature", "properties": {"norad_id": 66455, "name": "ATLAS 5 CENTAUR R/B", "group": "last-30-days", "lat": 4.060652977136178, "lon": 70.7918296360977, "alt_km": 13507.672251016815, "timestamp": "2025-12-09T21:34:10.194715+00:00", "meta": {"OBJECT_NAME": "ATLAS 5 CENTAUR R/B", "OBJECT_ID": "2025-261B", "EPOCH": "2025-12-09T12:36:12.496896", "MEAN_MOTION": 2.28259633, "ECCENTRICITY": 0.23295155, "INCLINATION": 6.1498, "RA_OF_ASC_NODE": 291.938, "ARG_OF_PERICENTER": 185.838, "MEAN_ANOMALY": 23.1887, "EPHEMERIS_TYPE": 0, "CLASSIFICATION_TYPE": "U", "NORAD_CAT_ID": 66455, "ELEMENT_SET_NO": 999, "REV_AT_EPOCH": 57, "BSTAR": 0, "MEAN_MOTION_DOT": -8e-07, "MEAN_MOTION_DDOT": 0}, "tle": {"line1": "1 66455U 25261B   25343.52514464 -.00000080  00000+0  00000+0 0  9997", "line2": "2 66455   6.1498 291.9380 2329515 185.8380  23.1887  2.28259633   579"}}, "geometry": {"type": "Point", "coordinates": [70.7918296360977, 4.060652977136178]}}, {"type": "Feature", "properties": {"norad_id": 66456, "name": "STARLINK-35643", "group": "last-30-days", "lat": -22.91250261208006, "lon": -65.04365043640642, "alt_km": 446.2310437378792, "timestamp": "2025-12-09T21:34:10.194726+00:00", "meta": {"OBJECT_NAME": "STARLINK-35643", "OBJECT_ID": "2025-262A", "EPOCH": "2025-12-09T16:00:01.999584", "MEAN_MOTION": 15.40591157, "ECCENTRICITY": 0.00013833, "INCLINATION": 43.0002, "RA_OF_ASC_NODE": 89.32, "ARG_OF_PERICENTER": 292.2268, "MEAN_ANOMALY": 74.0712, "EPHEMERIS_TYPE": 0, "CLASSIFICATION_TYPE": "U", "NORAD_CAT_ID": 66456, "ELEMENT_SET_NO": 999, "REV_AT_EPOCH": 514, "BSTAR": 0.0025561691, "MEAN_MOTION_DOT": 0.00107602, "MEAN_MOTION_DDOT": 0}, "tle": {"line1": "1 66456U 25262A   25343.66668981  .00107602  00000+0  25562-2 0  9998", "line2": "2 66456  43.0002  89.3200 0001383 292.2268  74.0712 15.40591157  5145"}}, "geometry": {"type": "Point", "coordinates": [-65.04365043640642, -22.91250261208006]}}, {"type": "Feature", "properties": {"norad_id": 66457, "name": "STARLINK-35466", "group": "last-30-days", "lat": -36.03920747639045, "lon": -40.74501948216895, "alt_km": 446.7397364737717, "timestamp": "2025-12-09T21:34:10.194737+00:00", "meta": {"OBJECT_NAME": "STARLINK-35466", "OBJECT_ID": "2025-262B", "EPOCH": "2025-12-09T16:00:01.999584", "MEAN_MOTION": 15.40629108, "ECCENTRICITY": 9.578e-05, "INCLINATION": 43.0003, "RA_OF_ASC_NODE": 89.2595, "ARG_OF_PERICENTER": 284.8902, "MEAN_ANOMALY": 106.2283, "EPHEMERIS_TYPE": 0, "CLASSIFICATION_TYPE": "U", "NORAD_CAT_ID": 66457, "ELEMENT_SET_NO": 999, "REV_AT_EPOCH": 514, "BSTAR": 0.0021028504, "MEAN_MOTION_DOT": 0.00088352, "MEAN_MOTION_DDOT": 0}, "tle": {"line1": "1 66457U 25262B   25343.66668981  .00088352  00000+0  21029-2 0  9993", "line2": "2 66457  43.0003  89.2595 0000957 284.8902 106.2283 15.40629108  5140"}}, "geometry": {"type": "Point", "coordinates": [-40.74501948216895, -36.03920747639045]}}, {"type": "Feature", "properties": {"norad_id": 66458, "name": "STARLINK-35684", "group": "last-30-days", "lat": -30.021420249307525, "lon": -53.723939409813255, "alt_km": 446.12788033730703, "timestamp": "2025-12-09T21:34:10.194747+00:00", "meta": {"OBJECT_NAME": "STARLINK-35684", "OBJECT_ID": "2025-262C", "EPOCH": "2025-12-09T14:00:01.999872", "MEAN_MOTION": 15.40653016, "ECCENTRICITY": 0.00012925, "INCLINATION": 42.9999, "RA_OF_ASC_NODE": 89.7697, "ARG_OF_PERICENTER": 268.436, "MEAN_ANOMALY": 7.4575, "EPHEMERIS_TYPE": 0, "CLASSIFICATION_TYPE": "U", "NORAD_CAT_ID": 66458, "ELEMENT_SET_NO": 999, "REV_AT_EPOCH": 513, "BSTAR": 0.0015597706, "MEAN_MOTION_DOT": 0.00065309, "MEAN_MOTION_DDOT": 0}, "tle": {"line1": "1 66458U 25262C   25343.58335648  .00065309  00000+0  15598-2 0  9997", "line2": "2 66458  42.9999  89.7697 0001292 268.4360   7.4575 15.40653016  5130"}}, "geometry": {"type": "Point", "coordinates": [-53.723939409813255, -30.021420249307525]}}, {"type": "Feature", "properties": {"norad_id": 66459, "name": "STARLINK-35449", "group": "last-30-days", "lat": -40.437715539212554, "lon": -25.971493391271313, "alt_km": 446.7129404477255, "timestamp": "2025-12-09T21:34:10.194759+00:00", "meta": {"OBJECT_NAME": "STARLINK-35449", "OBJECT_ID": "2025-262D", "EPOCH": "2025-12-09T14:00:01.999872", "MEAN_MOTION": 15.40650444, "ECCENTRICITY": 0.00012318, "INCLINATION": 42.9999, "RA_OF_ASC_NODE": 89.7076, "ARG_OF_PERICENTER": 290.0366, "MEAN_ANOMALY": 10.7497, "EPHEMERIS_TYPE": 0, "CLASSIFICATION_TYPE": "U", "NORAD_CAT_ID": 66459, "ELEMENT_SET_NO": 999, "REV_AT_EPOCH": 513, "BSTAR": 0.0013094629, "MEAN_MOTION_DOT": 0.00054698, "MEAN_MOTION_DDOT": 0}, "tle": {"line1": "1 66459U 25262D   25343.58335648  .00054698  00000+0  13095-2 0  9997", "line2": "2 66459  42.9999  89.7076 0001231 290.0366  10.7497 15.40650444  5134"}}, "geometry": {"type": "Point", "coordinates": [-25.971493391271313, -40.437715539212554]}}, {"type": "Feature", "properties": {"norad_id": 66460, "name": "STARLINK-35424", "group": "last-30-days", "lat": -42.73424730986135, "lon": -9.639644631669023, "alt_km": 446.51238282625945, "timestamp": "2025-12-09T21:34:10.194770+00:00", "meta": {"OBJECT_NAME": "STARLINK-35424", "OBJECT_ID": "2025-262E", "EPOCH": "2025-12-09T14:00:01.999872", "MEAN_MOTION": 15.40645913, "ECCENTRICITY": 0.00014574, "INCLINATION": 42.9999, "RA_OF_ASC_NODE": 89.677, "ARG_OF_PERICENTER": 278.7269, "MEAN_ANOMALY": 34.5109, "EPHEMERIS_TYPE": 0, "CLASSIFICATION_TYPE": "U", "NORAD_CAT_ID": 66460, "ELEMENT_SET_NO": 999, "REV_AT_EPOCH": 513, "BSTAR": 0.0013084473, "MEAN_MOTION_DOT": 0.00054647, "MEAN_MOTION_DDOT": 0}, "tle": {"line1": "1 66460U 25262E   25343.58335648  .00054647  00000+0  13084-2 0  9991", "line2": "2 66460  42.9999  89.6770 0001457 278.7269  34.5109 15.40645913  5130"}}, "geometry": {"type": "Point", "coordinates": [-9.639644631669023, -42.73424730986135]}}, {"type": "Feature", "properties": {"norad_id": 66461, "name": "STARLINK-35132", "group": "last-30-days", "lat": -42.59001929049469, "lon": 7.271234530139237, "alt_km": 446.61788582619556, "timestamp": "2025-12-09T21:34:10.194780+00:00", "meta": {"OBJECT_NAME": "STARLINK-35132", "OBJECT_ID": "2025-262F", "EPOCH": "2025-12-09T14:00:01.999872", "MEAN_MOTION": 15.41060073, "ECCENTRICITY": 0.00014426, "INCLINATION": 42.9998, "RA_OF_ASC_NODE": 89.6485, "ARG_OF_PERICENTER": 287.4827, "MEAN_ANOMALY": 37.9997, "EPHEMERIS_TYPE": 0, "CLASSIFICATION_TYPE": "U", "NORAD_CAT_ID": 66461, "ELEMENT_SET_NO": 999, "REV_AT_EPOCH": 513, "BSTAR": -0.015940545, "MEAN_MOTION_DOT": -0.0062194, "MEAN_MOTION_DDOT": 0}, "tle": {"line1": "1 66461U 25262F   25343.58335648 -.00621940  00000+0 -15941-1 0  9993", "line2": "2 66461  42.9998  89.6485 0001442 287.4827  37.9997 15.41060073  5135"}}, "geometry": {"type": "Point", "coordinates": [7.271234530139237, -42.59001929049469]}}, {"type": "Feature", "properties": {"norad_id": 66462, "name": "STARLINK-35499", "group": "last-30-days", "lat": -40.08601714479771, "lon": 23.217711221579417, "alt_km": 444.21765895809676, "timestamp": "2025-12-09T21:34:10.194792+00:00", "meta": {"OBJECT_NAME": "STARLINK-35499", "OBJECT_ID": "2025-262G", "EPOCH": "2025-12-09T14:00:01.999872", "MEAN_MOTION": 15.42959055, "ECCENTRICITY": 0.00013665, "INCLINATION": 43.0003, "RA_OF_ASC_NODE": 89.6218, "ARG_OF_PERICENTER": 278.6112, "MEAN_ANOMALY": 57.6023, "EPHEMERIS_TYPE": 0, "CLASSIFICATION_TYPE": "U", "NORAD_CAT_ID": 66462, "ELEMENT_SET_NO": 999, "REV_AT_EPOCH": 513, "BSTAR": -0.055830829, "MEAN_MOTION_DOT": -0.02253075, "MEAN_MOTION_DDOT": 0}, "tle": {"line1": "1 66462U 25262G   25343.58335648 -.02253075  00000+0 -55831-1 0  9998", "line2": "2 66462  43.0003  89.6218 0001366 278.6112  57.6023 15.42959055  5130"}}, "geometry": {"type": "Point", "coordinates": [23.217711221579417, -40.08601714479771]}}]}